[{"OBJECT_NAME":"STARLINK-31845","OBJECT_ID":"2024-118S","EPOCH":"2026-03-04T09:05:49.764480","MEAN_MOTION":15.30201245,"ECCENTRICITY":0.00012802,"INCLINATION":53.1611,"RA_OF_ASC_NODE":49.2237,"ARG_OF_PERICENTER":87.1021,"MEAN_ANOMALY":273.0126,"EPHEMERIS_TYPE":0,"CLASSIFICATION_TYPE":"U","NORAD_CAT_ID":60129,"ELEMENT_SET_NO":999,"REV_AT_EPOCH":9491,"BSTAR":4.0617997e-5,"MEAN_MOTION_DOT":8.44e-6,"MEAN_MOTION_DDOT":0},{"OBJECT_NAME":"STARLINK-31838","OBJECT_ID":"2024-118T","EPOCH":"2026-03-04T06:15:12.777120","MEAN_MOTION":15.30191819,"ECCENTRICITY":0.00012104,"INCLINATION":53.1617,"RA_OF_ASC_NODE":52.0391,"ARG_OF_PERICENTER":88.6487,"MEAN_ANOMALY":271.4653,"EPHEMERIS_TYPE":0,"CLASSIFICATION_TYPE":"U","NORAD_CAT_ID":60130,"ELEMENT_SET_NO":999,"REV_AT_EPOCH":9486,"BSTAR":2.4689753e-5,"MEAN_MOTION_DOT":3.72e-6,"MEAN_MOTION_DDOT":0},{"OBJECT_NAME":"STARLINK-31785","OBJECT_ID":"2024-118U","EPOCH":"2026-03-04T08:58:59.943360","MEAN_MOTION":15.30197787,"ECCENTRICITY":0.00013908,"INCLINATION":53.1611,"RA_OF_ASC_NODE":51.3301,"ARG_OF_PERICENTER":97.9481,"MEAN_ANOMALY":262.1678,"EPHEMERIS_TYPE":0,"CLASSIFICATION_TYPE":"U","NORAD_CAT_ID":60131,"ELEMENT_SET_NO":999,"REV_AT_EPOCH":9488,"BSTAR":3.209241e-5,"MEAN_MOTION_DOT":5.91e-6,"MEAN_MOTION_DDOT":0},{"OBJECT_NAME":"STARLINK-31792","OBJECT_ID":"2024-118V","EPOCH":"2026-03-04T08:41:31.164864","MEAN_MOTION":15.30181859,"ECCENTRICITY":0.00013125,"INCLINATION":53.1612,"RA_OF_ASC_NODE":49.0798,"ARG_OF_PERICENTER":81.3557,"MEAN_ANOMALY":278.7592,"EPHEMERIS_TYPE":0,"CLASSIFICATION_TYPE":"U","NORAD_CAT_ID":60132,"ELEMENT_SET_NO":999,"REV_AT_EPOCH":9491,"BSTAR":-8.751792e-6,"MEAN_MOTION_DOT":-6.18e-6,"MEAN_MOTION_DDOT":0},{"OBJECT_NAME":"STARLINK-32043","OBJECT_ID":"2024-120A","EPOCH":"2026-03-04T01:11:24.545760","MEAN_MOTION":15.30190933,"ECCENTRICITY":0.00010551,"INCLINATION":53.1617,"RA_OF_ASC_NODE":346.0529,"ARG_OF_PERICENTER":107.1241,"MEAN_ANOMALY":252.9875,"EPHEMERIS_TYPE":0,"CLASSIFICATION_TYPE":"U","NORAD_CAT_ID":60135,"ELEMENT_SET_NO":999,"REV_AT_EPOCH":9551,"BSTAR":5.8812086e-5,"MEAN_MOTION_DOT":1.383e-5,"MEAN_MOTION_DDOT":0},{"OBJECT_NAME":"STARLINK-32112","OBJECT_ID":"2024-120B","EPOCH":"2026-03-04T00:22:56.681184","MEAN_MOTION":15.30196571,"ECCENTRICITY":8.901e-5,"INCLINATION":53.1614,"RA_OF_ASC_NODE":346.5537,"ARG_OF_PERICENTER":105.5997,"MEAN_ANOMALY":254.5102,"EPHEMERIS_TYPE":0,"CLASSIFICATION_TYPE":"U","NORAD_CAT_ID":60136,"ELEMENT_SET_NO":999,"REV_AT_EPOCH":9558,"BSTAR":4.3330451e-5,"MEAN_MOTION_DOT":9.24e-6,"MEAN_MOTION_DDOT":0},{"OBJECT_NAME":"STARLINK-32050","OBJECT_ID":"2024-120C","EPOCH":"2026-03-04T00:32:03.957792","MEAN_MOTION":15.30192022,"ECCENTRICITY":0.00010885,"INCLINATION":53.1618,"RA_OF_ASC_NODE":346.5944,"ARG_OF_PERICENTER":92.5068,"MEAN_ANOMALY":267.6058,"EPHEMERIS_TYPE":0,"CLASSIFICATION_TYPE":"U","NORAD_CAT_ID":60137,"ELEMENT_SET_NO":999,"REV_AT_EPOCH":9550,"BSTAR":2.7318991e-5,"MEAN_MOTION_DOT":4.5e-6,"MEAN_MOTION_DDOT":0},{"OBJECT_NAME":"STARLINK-32025","OBJECT_ID":"2024-120D","EPOCH":"2026-03-04T03:55:11.798400","MEAN_MOTION":15.30192334,"ECCENTRICITY":0.00011862,"INCLINATION":53.1615,"RA_OF_ASC_NODE":345.3374,"ARG_OF_PERICENTER":105.7913,"MEAN_ANOMALY":254.3219,"EPHEMERIS_TYPE":0,"CLASSIFICATION_TYPE":"U","NORAD_CAT_ID":60138,"ELEMENT_SET_NO":999,"REV_AT_EPOCH":9553,"BSTAR":8.2648854e-5,"MEAN_MOTION_DOT":2.089e-5,"MEAN_MOTION_DDOT":0},{"OBJECT_NAME":"STARLINK-31867","OBJECT_ID":"2024-120E","EPOCH":"2026-03-04T14:00:01.999872","MEAN_MOTION":15.84417789,"ECCENTRICITY":0.00125358,"INCLINATION":53.1412,"RA_OF_ASC_NODE":328.9482,"ARG_OF_PERICENTER":171.7155,"MEAN_ANOMALY":7.8117,"EPHEMERIS_TYPE":0,"CLASSIFICATION_TYPE":"U","NORAD_CAT_ID":60139,"ELEMENT_SET_NO":999,"REV_AT_EPOCH":584,"BSTAR":0.0015485938,"MEAN_MOTION_DOT":0.00377992,"MEAN_MOTION_DDOT":0},{"OBJECT_NAME":"STARLINK-31694","OBJECT_ID":"2024-120F","EPOCH":"2026-03-04T05:02:03.783264","MEAN_MOTION":15.30213377,"ECCENTRICITY":0.0001277,"INCLINATION":53.1607,"RA_OF_ASC_NODE":345.6297,"ARG_OF_PERICENTER":92.6461,"MEAN_ANOMALY":267.4686,"EPHEMERIS_TYPE":0,"CLASSIFICATION_TYPE":"U","NORAD_CAT_ID":60140,"ELEMENT_SET_NO":999,"REV_AT_EPOCH":9561,"BSTAR":0.00027800442,"MEAN_MOTION_DOT":7.887e-5,"MEAN_MOTION_DDOT":0},{"OBJECT_NAME":"STARLINK-32036","OBJECT_ID":"2024-120G","EPOCH":"2026-03-04T00:18:23.047200","MEAN_MOTION":15.30200342,"ECCENTRICITY":9.881e-5,"INCLINATION":53.1618,"RA_OF_ASC_NODE":346.5335,"ARG_OF_PERICENTER":108.5026,"MEAN_ANOMALY":251.6083,"EPHEMERIS_TYPE":0,"CLASSIFICATION_TYPE":"U","NORAD_CAT_ID":60141,"ELEMENT_SET_NO":999,"REV_AT_EPOCH":9558,"BSTAR":0.00010057891,"MEAN_MOTION_DOT":2.621e-5,"MEAN_MOTION_DDOT":0},{"OBJECT_NAME":"STARLINK-32031","OBJECT_ID":"2024-120H","EPOCH":"2026-03-04T01:43:18.724800","MEAN_MOTION":15.30205772,"ECCENTRICITY":0.0001162,"INCLINATION":53.1619,"RA_OF_ASC_NODE":346.1879,"ARG_OF_PERICENTER":76.0087,"MEAN_ANOMALY":284.1043,"EPHEMERIS_TYPE":0,"CLASSIFICATION_TYPE":"U","NORAD_CAT_ID":60142,"ELEMENT_SET_NO":999,"REV_AT_EPOCH":9559,"BSTAR":8.5167397e-5,"MEAN_MOTION_DOT":2.164e-5,"MEAN_MOTION_DDOT":0},{"OBJECT_NAME":"STARLINK-32027","OBJECT_ID":"2024-120J","EPOCH":"2026-03-04T03:49:06.417120","MEAN_MOTION":15.3020044,"ECCENTRICITY":0.00013518,"INCLINATION":53.1618,"RA_OF_ASC_NODE":345.2739,"ARG_OF_PERICENTER":92.2031,"MEAN_ANOMALY":267.9125,"EPHEMERIS_TYPE":0,"CLASSIFICATION_TYPE":"U","NORAD_CAT_ID":60143,"ELEMENT_SET_NO":999,"REV_AT_EPOCH":9561,"BSTAR":8.2320753e-5,"MEAN_MOTION_DOT":2.08e-5,"MEAN_MOTION_DDOT":0},{"OBJECT_NAME":"STARLINK-32033","OBJECT_ID":"2024-120K","EPOCH":"2026-03-04T02:33:18.219168","MEAN_MOTION":15.30197016,"ECCENTRICITY":0.00012033,"INCLINATION":53.1618,"RA_OF_ASC_NODE":345.7042,"ARG_OF_PERICENTER":92.4916,"MEAN_ANOMALY":267.6223,"EPHEMERIS_TYPE":0,"CLASSIFICATION_TYPE":"U","NORAD_CAT_ID":60144,"ELEMENT_SET_NO":999,"REV_AT_EPOCH":9552,"BSTAR":8.9566883e-5,"MEAN_MOTION_DOT":2.294e-5,"MEAN_MOTION_DDOT":0},{"OBJECT_NAME":"STARLINK-32029","OBJECT_ID":"2024-120L","EPOCH":"2026-03-04T01:29:38.311872","MEAN_MOTION":15.30207514,"ECCENTRICITY":0.00011204,"INCLINATION":53.1623,"RA_OF_ASC_NODE":346.1285,"ARG_OF_PERICENTER":78.0276,"MEAN_ANOMALY":282.0851,"EPHEMERIS_TYPE":0,"CLASSIFICATION_TYPE":"U","NORAD_CAT_ID":60145,"ELEMENT_SET_NO":999,"REV_AT_EPOCH":9551,"BSTAR":2.7198554e-5,"MEAN_MOTION_DOT":4.47e-6,"MEAN_MOTION_DDOT":0},{"OBJECT_NAME":"STARLINK-32127","OBJECT_ID":"2024-120M","EPOCH":"2026-03-04T03:46:04.768032","MEAN_MOTION":15.30195855,"ECCENTRICITY":6.535e-5,"INCLINATION":53.1607,"RA_OF_ASC_NODE":345.3004,"ARG_OF_PERICENTER":116.4255,"MEAN_ANOMALY":243.6813,"EPHEMERIS_TYPE":0,"CLASSIFICATION_TYPE":"U","NORAD_CAT_ID":60146,"ELEMENT_SET_NO":999,"REV_AT_EPOCH":9553,"BSTAR":4.0704431e-5,"MEAN_MOTION_DOT":8.47e-6,"MEAN_MOTION_DDOT":0}]
