STARLINK-31845          
1 60129U 24118S   26063.37904820  .00000844  00000+0  40618-4 0  9992
2 60129  53.1611  49.2237 0001280  87.1021 273.0126 15.30201245 94911
STARLINK-31838          
1 60130U 24118T   26063.26056455  .00000372  00000+0  24690-4 0  9992
2 60130  53.1617  52.0391 0001210  88.6487 271.4653 15.30191819 94863
STARLINK-31785          
1 60131U 24118U   26063.37430490  .00000591  00000+0  32092-4 0  9998
2 60131  53.1611  51.3301 0001390  97.9481 262.1678 15.30197787 94883
STARLINK-31792          
1 60132U 24118V   26063.36216626 -.00000618  00000+0 -87518-5 0  9997
2 60132  53.1612  49.0798 0001312  81.3557 278.7592 15.30181859 94919
STARLINK-32043          
1 60135U 24120A   26063.04958965  .00001383  00000+0  58812-4 0  9999
2 60135  53.1617 346.0529 0001055 107.1241 252.9875 15.30190933 95518
STARLINK-32112          
1 60136U 24120B   26063.01593381  .00000924  00000+0  43330-4 0  9993
2 60136  53.1614 346.5537 0000890 105.5997 254.5102 15.30196571 95588
STARLINK-32050          
1 60137U 24120C   26063.02226803  .00000450  00000+0  27319-4 0  9990
2 60137  53.1618 346.5944 0001088  92.5068 267.6058 15.30192022 95503
STARLINK-32025          
1 60138U 24120D   26063.16333100  .00002089  00000+0  82649-4 0  9992
2 60138  53.1615 345.3374 0001186 105.7913 254.3219 15.30192334 95531
STARLINK-31867          
1 60139U 24120E   26063.58335648  .00377992  00000+0  15486-2 0  9999
2 60139  53.1412 328.9482 0012535 171.7155   7.8117 15.84417789  5841
STARLINK-31694          
1 60140U 24120F   26063.20976601  .00007887  00000+0  27800-3 0  9997
2 60140  53.1607 345.6297 0001277  92.6461 267.4686 15.30213377 95618
STARLINK-32036          
1 60141U 24120G   26063.01276675  .00002621  00000+0  10058-3 0  9999
2 60141  53.1618 346.5335 0000988 108.5026 251.6083 15.30200342 95586
STARLINK-32031          
1 60142U 24120H   26063.07174450  .00002164  00000+0  85167-4 0  9990
2 60142  53.1619 346.1879 0001162  76.0087 284.1043 15.30205772 95598
STARLINK-32027          
1 60143U 24120J   26063.15910205  .00002080  00000+0  82321-4 0  9992
2 60143  53.1618 345.2739 0001351  92.2031 267.9125 15.30200440 95612
STARLINK-32033          
1 60144U 24120K   26063.10646087  .00002294  00000+0  89567-4 0  9998
2 60144  53.1618 345.7042 0001203  92.4916 267.6223 15.30197016 95525
STARLINK-32029          
1 60145U 24120L   26063.06224898  .00000447  00000+0  27199-4 0  9997
2 60145  53.1623 346.1285 0001120  78.0276 282.0851 15.30207514 95515
STARLINK-32127          
1 60146U 24120M   26063.15699963  .00000847  00000+0  40704-4 0  9998
2 60146  53.1607 345.3004 0000653 116.4255 243.6813 15.30195855 95539
